{
  "type": "FeatureCollection",
  "features": [
    {
      "type": "Feature",
      "properties": {
        "norad_id": 34554,
        "name": "COSMOS 2251 DEB",
        "group": "cosmos-2251-debris",
        "lat": -73.93132447761609,
        "lon": -152.25269495177176,
        "alt_km": 774.8305878775072,
        "timestamp": "2025-12-09T21:34:11.804053+00:00",
        "meta_object_name": "COSMOS 2251 DEB",
        "meta_object_id": "1993-036UQ",
        "meta_epoch": "2025-12-09T16:08:21.908256",
        "meta_mean_motion": 14.37929055,
        "meta_eccentricity": 0.00228537,
        "meta_inclination": 74.0384,
        "meta_ra_of_asc_node": 304.639,
        "meta_arg_of_pericenter": 7.6898,
        "meta_mean_anomaly": 169.941,
        "meta_ephemeris_type": 0,
        "meta_classification_type": "U",
        "meta_norad_cat_id": 34554,
        "meta_element_set_no": 999,
        "meta_rev_at_epoch": 87711,
        "meta_bstar": 0.00062977969,
        "meta_mean_motion_dot": 1.882e-05,
        "meta_mean_motion_ddot": 0,
        "tle_line1": "1 34554U 93036UQ  25343.67247579  .00001882  00000+0  62978-3 0  9999",
        "tle_line2": "2 34554  74.0384 304.6390 0022853   7.6898 169.9410 14.37929055877111"
      },
      "geometry": {
        "type": "Point",
        "coordinates": [
          -152.25269495177176,
          -73.93132447761609
        ]
      }
    },
    {
      "type": "Feature",
      "properties": {
        "norad_id": 34556,
        "name": "COSMOS 2251 DEB",
        "group": "cosmos-2251-debris",
        "lat": 19.38350762775684,
        "lon": 136.22635347040944,
        "alt_km": 642.2782135888956,
        "timestamp": "2025-12-09T21:34:11.804063+00:00",
        "meta_object_name": "COSMOS 2251 DEB",
        "meta_object_id": "1993-036US",
        "meta_epoch": "2025-12-09T12:00:06.326208",
        "meta_mean_motion": 14.7762977,
        "meta_eccentricity": 0.0008252,
        "meta_inclination": 74.0162,
        "meta_ra_of_asc_node": 131.2214,
        "meta_arg_of_pericenter": 190.7718,
        "meta_mean_anomaly": 229.6833,
        "meta_ephemeris_type": 0,
        "meta_classification_type": "U",
        "meta_norad_cat_id": 34556,
        "meta_element_set_no": 999,
        "meta_rev_at_epoch": 88281,
        "meta_bstar": 0.0035125143,
        "meta_mean_motion_dot": 0.00025205,
        "meta_mean_motion_ddot": 0,
        "tle_line1": "1 34556U 93036US  25343.50007322  .00025205  00000+0  35125-2 0  9991",
        "tle_line2": "2 34556  74.0162 131.2214 0008252 190.7718 229.6833 14.77629770882819"
      },
      "geometry": {
        "type": "Point",
        "coordinates": [
          136.22635347040944,
          19.38350762775684
        ]
      }
    },
    {
      "type": "Feature",
      "properties": {
        "norad_id": 34560,
        "name": "COSMOS 2251 DEB",
        "group": "cosmos-2251-debris",
        "lat": -27.202932567497413,
        "lon": 139.19325682677913,
        "alt_km": 662.4101932256699,
        "timestamp": "2025-12-09T21:34:11.804074+00:00",
        "meta_object_name": "COSMOS 2251 DEB",
        "meta_object_id": "1993-036UW",
        "meta_epoch": "2025-12-09T10:24:17.600256",
        "meta_mean_motion": 14.7198998,
        "meta_eccentricity": 0.00149356,
        "meta_inclination": 74.0167,
        "meta_ra_of_asc_node": 148.5705,
        "meta_arg_of_pericenter": 229.8492,
        "meta_mean_anomaly": 157.4768,
        "meta_ephemeris_type": 0,
        "meta_classification_type": "U",
        "meta_norad_cat_id": 34560,
        "meta_element_set_no": 999,
        "meta_rev_at_epoch": 88203,
        "meta_bstar": 0.0031669846,
        "meta_mean_motion_dot": 0.00019939,
        "meta_mean_motion_ddot": 0,
        "tle_line1": "1 34560U 93036UW  25343.43353704  .00019939  00000+0  31670-2 0  9994",
        "tle_line2": "2 34560  74.0167 148.5705 0014935 229.8492 157.4768 14.71989980882038"
      },
      "geometry": {
        "type": "Point",
        "coordinates": [
          139.19325682677913,
          -27.202932567497413
        ]
      }
    },
    {
      "type": "Feature",
      "properties": {
        "norad_id": 34563,
        "name": "COSMOS 2251 DEB",
        "group": "cosmos-2251-debris",
        "lat": -2.00075702174187,
        "lon": -151.56055683472115,
        "alt_km": 734.3362176672254,
        "timestamp": "2025-12-09T21:34:11.804085+00:00",
        "meta_object_name": "COSMOS 2251 DEB",
        "meta_object_id": "1993-036UZ",
        "meta_epoch": "2025-12-09T15:05:20.311584",
        "meta_mean_motion": 14.46495796,
        "meta_eccentricity": 0.00138518,
        "meta_inclination": 74.0379,
        "meta_ra_of_asc_node": 209.5163,
        "meta_arg_of_pericenter": 303.5649,
        "meta_mean_anomaly": 88.7062,
        "meta_ephemeris_type": 0,
        "meta_classification_type": "U",
        "meta_norad_cat_id": 34563,
        "meta_element_set_no": 999,
        "meta_rev_at_epoch": 88152,
        "meta_bstar": 0.00073308514,
        "meta_mean_motion_dot": 2.616e-05,
        "meta_mean_motion_ddot": 0,
        "tle_line1": "1 34563U 93036UZ  25343.62870731  .00002616  00000+0  73309-3 0  9992",
        "tle_line2": "2 34563  74.0379 209.5163 0013851 303.5649  88.7062 14.46495796881527"
      },
      "geometry": {
        "type": "Point",
        "coordinates": [
          -151.56055683472115,
          -2.00075702174187
        ]
      }
    },
    {
      "type": "Feature",
      "properties": {
        "norad_id": 34564,
        "name": "COSMOS 2251 DEB",
        "group": "cosmos-2251-debris",
        "lat": -15.56486311218127,
        "lon": 67.84207636196523,
        "alt_km": 772.5008496459604,
        "timestamp": "2025-12-09T21:34:11.804095+00:00",
        "meta_object_name": "COSMOS 2251 DEB",
        "meta_object_id": "1993-036VA",
        "meta_epoch": "2025-12-09T11:29:04.043328",
        "meta_mean_motion": 14.40682016,
        "meta_eccentricity": 0.00189016,
        "meta_inclination": 74.0327,
        "meta_ra_of_asc_node": 244.045,
        "meta_arg_of_pericenter": 348.5612,
        "meta_mean_anomaly": 189.0169,
        "meta_ephemeris_type": 0,
        "meta_classification_type": "U",
        "meta_norad_cat_id": 34564,
        "meta_element_set_no": 999,
        "meta_rev_at_epoch": 87959,
        "meta_bstar": 0.00046285436,
        "meta_mean_motion_dot": 1.455e-05,
        "meta_mean_motion_ddot": 0,
        "tle_line1": "1 34564U 93036VA  25343.47851902  .00001455  00000+0  46285-3 0  9998",
        "tle_line2": "2 34564  74.0327 244.0450 0018901 348.5612 189.0169 14.40682016879598"
      },
      "geometry": {
        "type": "Point",
        "coordinates": [
          67.84207636196523,
          -15.56486311218127
        ]
      }
    },
    {
      "type": "Feature",
      "properties": {
        "norad_id": 34567,
        "name": "COSMOS 2251 DEB",
        "group": "cosmos-2251-debris",
        "lat": 49.77929096089396,
        "lon": -178.32695192062107,
        "alt_km": 860.3940410168316,
        "timestamp": "2025-12-09T21:34:11.804106+00:00",
        "meta_object_name": "COSMOS 2251 DEB",
        "meta_object_id": "1993-036VD",
        "meta_epoch": "2025-12-09T05:01:15.178080",
        "meta_mean_motion": 14.2401118,
        "meta_eccentricity": 0.0074562,
        "meta_inclination": 74.0396,
        "meta_ra_of_asc_node": 163.1343,
        "meta_arg_of_pericenter": 238.1727,
        "meta_mean_anomaly": 240.9079,
        "meta_ephemeris_type": 0,
        "meta_classification_type": "U",
        "meta_norad_cat_id": 34567,
        "meta_element_set_no": 999,
        "meta_rev_at_epoch": 87074,
        "meta_bstar": 0.00037325,
        "meta_mean_motion_dot": 8.56e-06,
        "meta_mean_motion_ddot": 0,
        "tle_line1": "1 34567U 93036VD  25343.20920345  .00000856  00000+0  37325-3 0  9999",
        "tle_line2": "2 34567  74.0396 163.1343 0074562 238.1727 240.9079 14.24011180870740"
      },
      "geometry": {
        "type": "Point",
        "coordinates": [
          -178.32695192062107,
          49.77929096089396
        ]
      }
    },
    {
      "type": "Feature",
      "properties": {
        "norad_id": 34569,
        "name": "COSMOS 2251 DEB",
        "group": "cosmos-2251-debris",
        "lat": -30.09739491935938,
        "lon": 32.853063573000945,
        "alt_km": 927.876115562296,
        "timestamp": "2025-12-09T21:34:11.804116+00:00",
        "meta_object_name": "COSMOS 2251 DEB",
        "meta_object_id": "1993-036VF",
        "meta_epoch": "2025-12-09T13:57:56.520288",
        "meta_mean_motion": 14.24740755,
        "meta_eccentricity": 0.01571292,
        "meta_inclination": 73.9903,
        "meta_ra_of_asc_node": 203.8463,
        "meta_arg_of_pericenter": 32.9514,
        "meta_mean_anomaly": 353.8964,
        "meta_ephemeris_type": 0,
        "meta_classification_type": "U",
        "meta_norad_cat_id": 34569,
        "meta_element_set_no": 999,
        "meta_rev_at_epoch": 86923,
        "meta_bstar": 0.00092010489,
        "meta_mean_motion_dot": 2.411e-05,
        "meta_mean_motion_ddot": 0,
        "tle_line1": "1 34569U 93036VF  25343.58190417  .00002411  00000+0  92010-3 0  9992",
        "tle_line2": "2 34569  73.9903 203.8463 0157129  32.9514 353.8964 14.24740755869230"
      },
      "geometry": {
        "type": "Point",
        "coordinates": [
          32.853063573000945,
          -30.09739491935938
        ]
      }
    }
  ]
}